ZHUHAI-1 01 (CAS-4A)    
1 42761U 17034D   23131.62041688  .00010427  00000+0  53042-3 0  9990
2 42761  43.0164 317.4038 0011648 234.6401 237.2768 15.16858735326090
MAX VALIER SAT          
1 42778U 17036P   23131.34221065  .00026056  00000+0  71506-3 0  9998
2 42778  97.1596 167.0914 0007323 218.4808 141.5916 15.37210428327069
RADFXSAT (FOX-1B)       
1 43017U 17073E   23131.61838250  .00007630  00000+0  53814-3 0  9995
2 43017  97.6345  17.4084 0234643 189.6114 170.0574 14.85610220295758
FOX-1D (AO-92)          
1 43137U 18004AC  23131.21278107  .00039728  00000+0  88130-3 0  9990
2 43137  97.3290 210.0707 0004763 260.1332  99.9378 15.43616873296606
DIWATA-2B               
1 43678U 18084H   23131.53762968  .00001716  00000+0  16949-3 0  9991
2 43678  98.0161 274.7822 0008281 284.9529  75.0804 14.93302248246793
ES'HAIL 2               
1 43700U 18090A   23131.55257669  .00000141  00000+0  00000+0 0  9991
2 43700   0.0096 281.8649 0001609 159.0835  12.8407  1.00271257 16325
FOX-1CLIFF (AO-95)      
1 43770U 18099N   23131.39435593  .00007647  00000+0  62686-3 0  9993
2 43770  97.5764 193.9233 0010154 249.0409 110.9728 14.99490345242093
ITASAT 1                
1 43786U 18099AE  23131.12213699  .00006356  00000+0  52567-3 0  9995
2 43786  97.5771 194.6927 0011997 239.0215 120.9830 14.99198206242092
JY1SAT (JO-97)          
1 43803U 18099AX  23131.17443718  .00007470  00000+0  59781-3 0  9990
2 43803  97.5694 194.7066 0011689 223.1897 136.8411 15.00412544242143
UWE-4                   
1 43880U 18111E   23131.51603587  .00007489  00000+0  57759-3 0  9993
2 43880  97.6379  37.2824 0014771 301.1542  58.8233 15.01795736238868
NEXUS (FO-99)           
1 43937U 19003F   23131.00370751  .00071004  00000+0  12930-2 0  9990
2 43937  97.0910 158.7624 0014514  61.6841 298.5873 15.49130022240283
JAISAT-1                
1 44419U 19038F   23131.45793858  .00027890  00000+0  99759-3 0  9999
2 44419  97.6734 112.0072 0017785  75.5643 284.7569 15.28615106212923
DUCHIFAT-3              
1 44854U 19089C   23131.62274900  .00009538  00000+0  65110-3 0  9992
2 44854  36.9648 309.7237 0009362  11.3624  67.1326 15.05695695187328
CAS-6 (TIANQIN 1)       
1 44881U 19093C   23131.57943967  .00001376  00000+0  17792-3 0  9992
2 44881  97.8612 210.6535 0014199 192.2407 167.8468 14.82452778183371
RS-44 & BREEZE-KM R/B   
1 44909U 19096E   23131.16395275  .00000012  00000+0  11659-4 0  9997
2 44909  82.5252  12.5497 0216320 273.5969  84.0417 12.79720484157422
BY70-2                  
1 45857U 20042B   23131.67319974  .00023482  00000+0  24835-2 0  9995
2 45857  97.9257 211.4834 0011316 127.2359 232.9936 14.89138975154104
SALSAT                  
1 46495U 20068K   23131.41639089  .00006193  00000+0  41232-3 0  9997
2 46495  97.7671  79.0457 0014108 242.1833 117.7965 15.07412878143531
RADFXSAT-2 (AO-109)     
1 47311U 21002C   23131.58022865  .00028004  00000+0  76142-3 0  9993
2 47311  60.6803 199.0831 0018909 155.0025 205.1989 15.37279307128657
UVSQ-SAT                
1 47438U 21006AB  23131.12732327  .00018154  00000+0  76593-3 0  9993
2 47438  97.3867 188.7912 0009809 202.9491 157.1309 15.23303899127006
DIY-1 (ARDUIQUBE)       
1 47963U 21022AH  23131.25383695  .00171712  00000+0  31335-2 0  9992
2 47963  97.4996  38.1252 0012936  85.2898 274.9829 15.48711722116857
XW-3 (CAS-9)            
1 50466U 21131B   23131.59293732  .00000871  00000+0  29730-3 0  9998
2 50466  98.5515 213.2527 0003241 238.5369 121.5502 14.38873657 72090
TEVEL-3                 
1 50988U 22002E   23131.63645630  .00023101  00000+0  96064-3 0  9993
2 50988  97.4352 198.8834 0007357  15.8778  87.8802 15.23762354 73192
TEVEL-8                 
1 50989U 22002F   23131.44814067  .00022869  00000+0  95313-3 0  9991
2 50989  97.4372 198.7520 0007461  14.9569  42.2645 15.23688741 73164
TEVEL-5                 
1 50998U 22002Q   23131.47290355  .00023817  00000+0  96784-3 0  9999
2 50998  97.4351 199.0624 0008487   7.7731 118.0804 15.24525693 73199
TEVEL-6                 
1 50999U 22002R   23131.66416388  .00023842  00000+0  96857-3 0  9996
2 50999  97.4348 199.2475 0008441   6.8897  96.1065 15.24536073 73228
TEVEL-1                 
1 51013U 22002AF  23131.43936752  .00022973  00000+0  95688-3 0  9996
2 51013  97.4351 198.6356 0007346  15.1066  40.3505 15.23709289 73168
TEVEL-7                 
1 51062U 22002CG  23131.58977674  .00022978  00000+0  95705-3 0  9999
2 51062  97.4370 198.8673 0007507  13.8148  92.2277 15.23709612 73186
TEVEL-4                 
1 51063U 22002CH  23131.46700282  .00022868  00000+0  95394-3 0  9998
2 51063  97.4368 198.7316 0007434  14.6036 111.5506 15.23658569 73163
TEVEL-2                 
1 51069U 22002CP  23131.63840330  .00023043  00000+0  95825-3 0  9997
2 51069  97.4356 198.8599 0007454  15.0682  89.2127 15.23761945 73190
GREENCUBE               
1 53106U 22080B   23130.54224914 -.00000003  00000+0  00000+0 0  9999
2 53106  70.1661 332.8054 0008272 193.3243 166.7199  6.42557278 19338
RS29S (SXC3-2110 CYCLO*)
1 53373U 22096D   23131.52884435  .00037086  00000+0  10284-2 0  9999
2 53373  97.4166  37.4569 0002223  78.8495  45.1519 15.36840881 42050
RS32S (SXC3-212 MONITO*)
1 53374U 22096E   23131.71739800  .00033115  00000+0  93925-3 0  9999
2 53374  97.4141  37.5788 0001564 100.3974 259.7446 15.36161175 42085
RS34S (SXC3-218 KUZBAS*)
1 53375U 22096F   23131.71122109  .00028198  00000+0  84334-3 0  9997
2 53375  97.4167  37.3524 0001540  89.1358 355.7458 15.34525083 42062
RS23S (SXC3-21 UTMN)    
1 53376U 22096G   23131.68108781  .00028836  00000+0  84927-3 0  9991
2 53376  97.4167  37.3886 0001774  82.9011   4.8163 15.35006099 42067
RS28S (SXC3-214 MIET-A*)
1 53377U 22096H   23131.52302397  .00023288  00000+0  70337-3 0  9990
2 53377  97.4173  37.1662 0001470  88.1195  29.1071 15.34254384 42035
RS26S (KAI-1)           
1 53378U 22096J   23131.53131021  .00021893  00000+0  68795-3 0  9991
2 53378  97.4193  37.0152 0001276  94.0143  31.9598 15.33006259 42023
RS19S (SXC3-219 ISOI)   
1 53381U 22096M   23131.55566237  .00025360  00000+0  74689-3 0  9990
2 53381  97.4176  37.4154 0003679 149.4464 333.9547 15.35027755 42052
RS21S (CUBESX-HSE-2)    
1 53383U 22096P   23131.65289997  .00028097  00000+0  81851-3 0  9997
2 53383  97.4169  37.5643 0003936 153.3744 245.9628 15.35349783 42073
RS30S (SXC3-217 SIREN)  
1 53384U 22096Q   23131.65158088  .00023106  00000+0  70091-3 0  9994
2 53384  97.4183  37.4214 0004034 154.0957 245.3193 15.34110617 42068
RS20S (GEOSCAN-EDELVEIS)
1 53385U 22096R   23131.65011388  .00037830  00000+0  10003-2 0  9991
2 53385  97.4164  38.0169 0004549 149.1339 273.8672 15.38302847 42132
RS33S (SXC3-215 VIZARD) 
1 53386U 22096S   23131.52509580  .00049106  00000+0  11748-2 0  9990
2 53386  97.4161  38.3594 0004850 148.6845 335.8274 15.41301107 42135
CAS-5A (FO-118)         
1 54684U 22167C   23131.53047350  .00014739  00000+0  83020-3 0  9991
2 54684  97.5567 269.3926 0014901 102.4877 322.5149 15.13223408 23133
